$$SOE
2459580.500000000, A.D. 2022-Jan-01 00:00:00.0000, -1.300239440390297E+08, 7.988667886609009E+07, -3.509049658886912E+07,
2459587.500000000, A.D. 2022-Jan-08 00:00:00.0000, -1.380575840005905E+08, 6.384183095589145E+07, -4.161495525504878E+07,
2459594.500000000, A.D. 2022-Jan-15 00:00:00.0000, -1.443851292783500E+08, 4.700703990873037E+07, -4.762533635525407E+07,
2459601.500000000, A.D. 2022-Jan-22 00:00:00.0000, -1.489762782225878E+08, 2.960578987360448E+07, -5.306319371896809E+07,
2459608.500000000, A.D. 2022-Jan-29 00:00:00.0000, -1.518334747081726E+08, 1.185870122871848E+07, -5.788369113289620E+07,
2459615.500000000, A.D. 2022-Feb-05 00:00:00.0000, -1.529884819478194E+08, -6.022660920816131E+06, -6.205552503960406E+07,
2459622.500000000, A.D. 2022-Feb-12 00:00:00.0000, -1.524980512881392E+08, -2.384062138684924E+07, -6.556020679069720E+07,
2459629.500000000, A.D. 2022-Feb-19 00:00:00.0000, -1.504391697976290E+08, -4.141478034315014E+07, -6.839087718537074E+07,
2459636.500000000, A.D. 2022-Feb-26 00:00:00.0000, -1.469043011267909E+08, -5.858402337874792E+07, -7.055083255553928E+07,
2459643.500000000, A.D. 2022-Mar-05 00:00:00.0000, -1.419969297659114E+08, -7.520733955594701E+07, -7.205192377076329E+07,
2459650.500000000, A.D. 2022-Mar-12 00:00:00.0000, -1.358276087144421E+08, -9.116368606485397E+07, -7.291295734289885E+07,
2459657.500000000, A.D. 2022-Mar-19 00:00:00.0000, -1.285106121565641E+08, -1.063511495470949E+08, -7.315819095670891E+07,
2459664.500000000, A.D. 2022-Mar-26 00:00:00.0000, -1.201612173969939E+08, -1.206856354039897E+08, -7.281598105423859E+07,
2459671.500000000, A.D. 2022-Apr-02 00:00:00.0000, -1.108935864594606E+08, -1.340992807935203E+08, -7.191761130840379E+07,
2459678.500000000, A.D. 2022-Apr-09 00:00:00.0000, -1.008191850969997E+08, -1.465387451606319E+08, -7.049630928910908E+07,
2459685.500000000, A.D. 2022-Apr-16 00:00:00.0000, -9.004566137749571E+07, -1.579634907612266E+08, -6.858644403138241E+07,
2459692.500000000, A.D. 2022-Apr-23 00:00:00.0000, -7.867610419753280E+07, -1.683441295729847E+08, -6.622288832069392E+07,
2459699.500000000, A.D. 2022-Apr-30 00:00:00.0000, -6.680860689579637E+07, -1.776608874497288E+08, -6.344052539921936E+07,
2459706.500000000, A.D. 2022-May-07 00:00:00.0000, -5.453606458734603E+07, -1.859022141397342E+08, -6.027387894164103E+07,
2459713.500000000, A.D. 2022-May-14 00:00:00.0000, -4.194614560227971E+07, -1.930635469535154E+08, -5.675684525901469E+07,
2459720.500000000, A.D. 2022-May-21 00:00:00.0000, -2.912139106716961E+07, -1.991462273571621E+08, -5.292250837552846E+07,
2459727.500000000, A.D. 2022-May-28 00:00:00.0000, -1.613940462603126E+07, -2.041565646106167E+08, -4.880302127579387E+07,
2459734.500000000, A.D. 2022-Jun-04 00:00:00.0000, -3.073101901715955E+06, -2.081050359443298E+08, -4.442953915297125E+07,
2459741.500000000, A.D. 2022-Jun-11 00:00:00.0000, 1.000900352169586E+07, -2.110056105092643E+08, -3.983219285979007E+07,
2459748.500000000, A.D. 2022-Jun-18 00:00:00.0000, 2.304249496715505E+07, -2.128751837768410E+08, -3.504009294242679E+07,
2459755.500000000, A.D. 2022-Jun-25 00:00:00.0000, 3.596674115224722E+07, -2.137331095069016E+08, -3.008135654862569E+07,
2459762.500000000, A.D. 2022-Jul-02 00:00:00.0000, 4.872458751293951E+07, -2.136008173508935E+08, -2.498315107388490E+07,
2459769.500000000, A.D. 2022-Jul-09 00:00:00.0000, 6.126205699251866E+07, -2.125015049866956E+08, -1.977174963131653E+07,
2459776.500000000, A.D. 2022-Jul-16 00:00:00.0000, 7.352806438155809E+07, -2.104598938116362E+08, -1.447259432110073E+07,
2459783.500000000, A.D. 2022-Jul-23 00:00:00.0000, 8.547414475409535E+07, -2.075020392601340E+08, -9.110364127086207E+06,
2459790.500000000, A.D. 2022-Jul-30 00:00:00.0000, 9.705419795988330E+07, -2.036551915191516E+08, -3.709045702275917E+06,
2459797.500000000, A.D. 2022-Aug-06 00:00:00.0000, 1.082242539601580E+08, -1.989476999296377E+08, 1.707994025492236E+06,
2459804.500000000, A.D. 2022-Aug-13 00:00:00.0000, 1.189422586995718E+08, -1.934089535635173E+08, 7.117934801718578E+06,
2459811.500000000, A.D. 2022-Aug-20 00:00:00.0000, 1.291678789725134E+08, -1.870693545596323E+08, 1.249843062312574E+07,
2459818.500000000, A.D. 2022-Aug-27 00:00:00.0000, 1.388623261966735E+08, -1.799603216174462E+08, 1.782753869840699E+07,
2459825.500000000, A.D. 2022-Sep-03 00:00:00.0000, 1.479881992202490E+08, -1.721143210217791E+08, 2.308365038228665E+07,
2459832.500000000, A.D. 2022-Sep-10 00:00:00.0000, 1.565093462632516E+08, -1.635649230502267E+08, 2.824542454636975E+07,
2459839.500000000, A.D. 2022-Sep-17 00:00:00.0000, 1.643907462140347E+08, -1.543468822131439E+08, 3.329172377512618E+07,
2459846.500000000, A.D. 2022-Sep-24 00:00:00.0000, 1.715984097649683E+08, -1.444962403105398E+08, 3.820155374877326E+07,
2459853.500000000, A.D. 2022-Oct-01 00:00:00.0000, 1.780993013674127E+08, -1.340504516598705E+08, 4.295400619426381E+07,
2459860.500000000, A.D. 2022-Oct-08 00:00:00.0000, 1.838612835539318E+08, -1.230485296565684E+08, 4.752820591231977E+07,
2459867.500000000, A.D. 2022-Oct-15 00:00:00.0000, 1.888530842744857E+08, -1.115312134401245E+08, 5.190326270394327E+07,
2459874.500000000, A.D. 2022-Oct-22 00:00:00.0000, 1.930442871426727E+08, -9.954115649670033E+07, 5.605822905994077E+07,
2459881.500000000, A.D. 2022-Oct-29 00:00:00.0000, 1.964053497728660E+08, -8.712314001489776E+07, 5.997206418586431E+07,
2459888.500000000, A.D. 2022-Nov-05 00:00:00.0000, 1.989076557078677E+08, -7.432430846790035E+07, 6.362360569244659E+07,
2459895.500000000, A.D. 2022-Nov-12 00:00:00.0000, 2.005236021873372E+08, -6.119442624079264E+07, 6.699155089015547E+07,
2459902.500000000, A.D. 2022-Nov-19 00:00:00.0000, 2.012267281675625E+08, -4.778615604042457E+07, 7.005444975941139E+07,
2459909.500000000, A.D. 2022-Nov-26 00:00:00.0000, 2.009918890146055E+08, -3.415535874429795E+07, 7.279071214077631E+07,
2459916.500000000, A.D. 2022-Dec-03 00:00:00.0000, 1.997954853411657E+08, -2.036141315321073E+07, 7.517863235106778E+07,
2459923.500000000, A.D. 2022-Dec-10 00:00:00.0000, 1.976157545806800E+08, -6.467552910264201E+06, 7.719643518219231E+07,
2459930.500000000, A.D. 2022-Dec-17 00:00:00.0000, 1.944331351815636E+08, 7.458783751888786E+06, 7.882234810119124E+07,
2459937.500000000, A.D. 2022-Dec-24 00:00:00.0000, 1.902307147055948E+08, 2.134559797659079E+07, 8.003470545183116E+07,
2459944.500000000, A.D. 2022-Dec-31 00:00:00.0000, 1.849947745734187E+08, 3.511597766784627E+07, 8.081209154945190E+07,
2459951.500000000, A.D. 2023-Jan-07 00:00:00.0000, 1.787154448886837E+08, 4.868776280627357E+07, 8.113353081671041E+07,
2459958.500000000, A.D. 2023-Jan-14 00:00:00.0000, 1.713874811247864E+08, 6.197324786580711E+07, 8.097873451376267E+07,
2459965.500000000, A.D. 2023-Jan-21 00:00:00.0000, 1.630111753983686E+08, 7.487894319239385E+07, 8.032841440599748E+07,
2459972.500000000, A.D. 2023-Jan-28 00:00:00.0000, 1.535934175377746E+08, 8.730542799631467E+07, 7.916467442704245E+07,
2459979.500000000, A.D. 2023-Feb-04 00:00:00.0000, 1.431489134002375E+08, 9.914734021444219E+07, 7.747149240670642E+07,
2459986.500000000, A.D. 2023-Feb-11 00:00:00.0000, 1.317015595647942E+08, 1.102935559738389E+08, 7.523530337690462E+07,
2459993.500000000, A.D. 2023-Feb-18 00:00:00.0000, 1.192859645737563E+08, 1.206276222716676E+08, 7.244569391241688E+07,
2460000.500000000, A.D. 2023-Feb-25 00:00:00.0000, 1.059490914448504E+08, 1.300285184697890E+08, 6.909621307074407E+07,
2460007.500000000, A.D. 2023-Mar-04 00:00:00.0000, 9.175197407422818E+07, 1.383718317375171E+08, 6.518529873644771E+07,
2460014.500000000, A.D. 2023-Mar-11 00:00:00.0000, 7.677143125482535E+07, 1.455314361962517E+08, 6.071730764790779E+07,
2460021.500000000, A.D. 2023-Mar-18 00:00:00.0000, 6.110166648481821E+07, 1.513817615259497E+08, 5.570362234682593E+07,
2460028.500000000, A.D. 2023-Mar-25 00:00:00.0000, 4.485560128517757E+07, 1.558007193524487E+08, 5.016378845250466E+07,
2460035.500000000, A.D. 2023-Apr-01 00:00:00.0000, 2.816574850268320E+07, 1.586733197861034E+08, 4.412661170981702E+07,
2460042.500000000, A.D. 2023-Apr-08 00:00:00.0000, 1.118439629038658E+07, 1.598959512365296E+08, 3.763111834430729E+07,
2460049.500000000, A.D. 2023-Apr-15 00:00:00.0000, -5.917145251600967E+06, 1.593812082995436E+08, 3.072725768467446E+07,
2460056.500000000, A.D. 2023-Apr-22 00:00:00.0000, -2.295046488440314E+07, 1.570630420099123E+08, 2.347620841899673E+07,
2460063.500000000, A.D. 2023-Apr-29 00:00:00.0000, -3.971330953272751E+07, 1.529018930468855E+08, 1.595014857932438E+07,
2460070.500000000, A.D. 2023-May-06 00:00:00.0000, -5.599424650061795E+07, 1.468893587107535E+08, 8.231370914596409E+06,
2460077.500000000, A.D. 2023-May-13 00:00:00.0000, -7.157863074999262E+07, 1.390518717326626E+08, 4.106746774189249E+05,
2460084.500000000, A.D. 2023-May-20 00:00:00.0000, -8.625558380073899E+07, 1.294528700892903E+08, -7.414957736321382E+06,
2460091.500000000, A.D. 2023-May-27 00:00:00.0000, -9.982549841842178E+07, 1.181930314675209E+08, -1.514529478825738E+07,
2460098.500000000, A.D. 2023-Jun-03 00:00:00.0000, -1.121074386508437E+08, 1.054083359717645E+08, -2.268019896260367E+07,
2460105.500000000, A.D. 2023-Jun-10 00:00:00.0000, -1.229457511706524E+08, 9.126598132133886E+07, -2.992310219055851E+07,
2460112.500000000, A.D. 2023-Jun-17 00:00:00.0000, -1.322152662285051E+08, 7.595845575038493E+07, -3.678430312168335E+07,
2460119.500000000, A.D. 2023-Jun-24 00:00:00.0000, -1.398246393317892E+08, 5.969631303010026E+07, -4.318379499426380E+07,
2460126.500000000, A.D. 2023-Jul-01 00:00:00.0000, -1.457176318341359E+08, 4.270033842089708E+07, -4.905340114907371E+07,
2460133.500000000, A.D. 2023-Jul-08 00:00:00.0000, -1.498723953375865E+08, 2.519381570887784E+07, -5.433809586013207E+07,
2460140.500000000, A.D. 2023-Jul-15 00:00:00.0000, -1.522990504348175E+08, 7.395508219783194E+06, -5.899649777322692E+07,
2460147.500000000, A.D. 2023-Jul-22 00:00:00.0000, -1.530359933684173E+08, -1.048620479183052E+07, -6.300061831149352E+07,
$$EOE